{"type": "FeatureCollection", "features": [ {"type": "Feature", "properties": {"norad_id": 34818, "name": "COSMOS 2251 DEB", "group": "cosmos-2251-debris", "lat": -54.164397814270856, "lon": -70.24332307413786, "alt_km": 774.8007978190735, "timestamp": "2025-12-03T22:42:33.027955+00:00", "meta": {"OBJECT_NAME": "COSMOS 2251 DEB", "OBJECT_ID": "1993-036ABH", "EPOCH": "2025-12-02T09:14:30.798816", "MEAN_MOTION": 14.36943811, "ECCENTRICITY": 0.00237378, "INCLINATION": 74.0353, "RA_OF_ASC_NODE": 315.979, "ARG_OF_PERICENTER": 34.4087, "MEAN_ANOMALY": 115.9286, "EPHEMERIS_TYPE": 0, "CLASSIFICATION_TYPE": "U", "NORAD_CAT_ID": 34818, "ELEMENT_SET_NO": 999, "REV_AT_EPOCH": 87221, "BSTAR": 0.00031365968, "MEAN_MOTION_DOT": 9.06e-06, "MEAN_MOTION_DDOT": 0}, "tle": {"line1": "1 34818U 93036ABH 25336.38507869  .00000906  00000+0  31366-3 0  9996", "line2": "2 34818  74.0353 315.9790 0023737  34.4087 115.9286 14.36943811872212"}}, "geometry": {"type": "Point", "coordinates": [-70.24332307413786, -54.164397814270856]}}, {"type": "Feature", "properties": {"norad_id": 34819, "name": "COSMOS 2251 DEB", "group": "cosmos-2251-debris", "lat": 74.00525686518775, "lon": -111.213221911887, "alt_km": 684.5373489046406, "timestamp": "2025-12-03T22:42:33.027964+00:00", "meta": {"OBJECT_NAME": "COSMOS 2251 DEB", "OBJECT_ID": "1993-036ABJ", "EPOCH": "2025-12-03T06:42:50.616000", "MEAN_MOTION": 14.63727917, "ECCENTRICITY": 0.0016054, "INCLINATION": 74.0167, "RA_OF_ASC_NODE": 160.8406, "ARG_OF_PERICENTER": 254.3249, "MEAN_ANOMALY": 285.073, "EPHEMERIS_TYPE": 0, "CLASSIFICATION_TYPE": "U", "NORAD_CAT_ID": 34819, "ELEMENT_SET_NO": 999, "REV_AT_EPOCH": 88090, "BSTAR": 0.0018386, "MEAN_MOTION_DOT": 9.579e-05, "MEAN_MOTION_DDOT": 0}, "tle": {"line1": "1 34819U 93036ABJ 25337.27975250  .00009579  00000+0  18386-2 0  9990", "line2": "2 34819  74.0167 160.8406 0016054 254.3249 285.0730 14.63727917880909"}}, "geometry": {"type": "Point", "coordinates": [-111.213221911887, 74.00525686518775]}}, {"type": "Feature", "properties": {"norad_id": 34823, "name": "COSMOS 2251 DEB", "group": "cosmos-2251-debris", "lat": 56.50857599961796, "lon": 144.55279657254795, "alt_km": 794.6805991265055, "timestamp": "2025-12-03T22:42:33.027974+00:00", "meta": {"OBJECT_NAME": "COSMOS 2251 DEB", "OBJECT_ID": "1993-036ABN", "EPOCH": "2025-12-03T09:13:20.032032", "MEAN_MOTION": 14.54804511, "ECCENTRICITY": 0.015556, "INCLINATION": 74.0394, "RA_OF_ASC_NODE": 119.9881, "ARG_OF_PERICENTER": 207.0513, "MEAN_ANOMALY": 152.2484, "EPHEMERIS_TYPE": 0, "CLASSIFICATION_TYPE": "U", "NORAD_CAT_ID": 34823, "ELEMENT_SET_NO": 999, "REV_AT_EPOCH": 88245, "BSTAR": 0.0013569, "MEAN_MOTION_DOT": 6.819e-05, "MEAN_MOTION_DDOT": 0}, "tle": {"line1": "1 34823U 93036ABN 25337.38425963  .00006819  00000+0  13569-2 0  9990", "line2": "2 34823  74.0394 119.9881 0155560 207.0513 152.2484 14.54804511882452"}}, "geometry": {"type": "Point", "coordinates": [144.55279657254795, 56.50857599961796]}}, {"type": "Feature", "properties": {"norad_id": 34845, "name": "COSMOS 2251 DEB", "group": "cosmos-2251-debris", "lat": -42.99752274974824, "lon": 149.27402213538784, "alt_km": 730.4135218297306, "timestamp": "2025-12-03T22:42:33.027983+00:00", "meta": {"OBJECT_NAME": "COSMOS 2251 DEB", "OBJECT_ID": "1993-036ABP", "EPOCH": "2025-11-28T06:44:43.474272", "MEAN_MOTION": 14.45815545, "ECCENTRICITY": 0.00217969, "INCLINATION": 74.024, "RA_OF_ASC_NODE": 175.3373, "ARG_OF_PERICENTER": 338.6212, "MEAN_ANOMALY": 21.4033, "EPHEMERIS_TYPE": 0, "CLASSIFICATION_TYPE": "U", "NORAD_CAT_ID": 34845, "ELEMENT_SET_NO": 999, "REV_AT_EPOCH": 87257, "BSTAR": 0.00025523358, "MEAN_MOTION_DOT": 8.81e-06, "MEAN_MOTION_DDOT": 0}, "tle": {"line1": "1 34845U 93036ABP 25332.28105873  .00000881  00000+0  25523-3 0  9990", "line2": "2 34845  74.0240 175.3373 0021796 338.6212  21.4033 14.45815545872576"}}, "geometry": {"type": "Point", "coordinates": [149.27402213538784, -42.99752274974824]}}, {"type": "Feature", "properties": {"norad_id": 34846, "name": "COSMOS 2251 DEB", "group": "cosmos-2251-debris", "lat": -30.796320445552148, "lon": 108.04567993907861, "alt_km": 753.4166237952022, "timestamp": "2025-12-03T22:42:33.027992+00:00", "meta": {"OBJECT_NAME": "COSMOS 2251 DEB", "OBJECT_ID": "1993-036ABQ", "EPOCH": "2025-12-03T06:47:55.151808", "MEAN_MOTION": 14.47107786, "ECCENTRICITY": 0.0025889, "INCLINATION": 74.0309, "RA_OF_ASC_NODE": 279.4577, "ARG_OF_PERICENTER": 347.1109, "MEAN_ANOMALY": 12.9384, "EPHEMERIS_TYPE": 0, "CLASSIFICATION_TYPE": "U", "NORAD_CAT_ID": 34846, "ELEMENT_SET_NO": 999, "REV_AT_EPOCH": 87267, "BSTAR": 0.0014206, "MEAN_MOTION_DOT": 5.177e-05, "MEAN_MOTION_DDOT": 0}, "tle": {"line1": "1 34846U 93036ABQ 25337.28327722  .00005177  00000+0  14206-2 0  9993", "line2": "2 34846  74.0309 279.4577 0025889 347.1109  12.9384 14.47107786872670"}}, "geometry": {"type": "Point", "coordinates": [108.04567993907861, -30.796320445552148]}}, {"type": "Feature", "properties": {"norad_id": 34852, "name": "COSMOS 2251 DEB", "group": "cosmos-2251-debris", "lat": -56.34658522053251, "lon": 124.61689721992292, "alt_km": 784.3510968690734, "timestamp": "2025-12-03T22:42:33.028002+00:00", "meta": {"OBJECT_NAME": "COSMOS 2251 DEB", "OBJECT_ID": "1993-036ABW", "EPOCH": "2025-12-02T05:29:46.536576", "MEAN_MOTION": 14.36991388, "ECCENTRICITY": 0.0015746, "INCLINATION": 74.0326, "RA_OF_ASC_NODE": 282.3019, "ARG_OF_PERICENTER": 28.2884, "MEAN_ANOMALY": 331.9121, "EPHEMERIS_TYPE": 0, "CLASSIFICATION_TYPE": "U", "NORAD_CAT_ID": 34852, "ELEMENT_SET_NO": 999, "REV_AT_EPOCH": 87383, "BSTAR": 0.00017468, "MEAN_MOTION_DOT": 4.92e-06, "MEAN_MOTION_DDOT": 0}, "tle": {"line1": "1 34852U 93036ABW 25336.22901084  .00000492  00000+0  17468-3 0  9991", "line2": "2 34852  74.0326 282.3019 0015746  28.2884 331.9121 14.36991388873837"}}, "geometry": {"type": "Point", "coordinates": [124.61689721992292, -56.34658522053251]}}, {"type": "Feature", "properties": {"norad_id": 34854, "name": "COSMOS 2251 DEB", "group": "cosmos-2251-debris", "lat": -26.03329108270219, "lon": 167.77760232484272, "alt_km": 612.0667524564287, "timestamp": "2025-12-03T22:42:33.028011+00:00", "meta": {"OBJECT_NAME": "COSMOS 2251 DEB", "OBJECT_ID": "1993-036ABY", "EPOCH": "2025-12-01T22:02:46.134528", "MEAN_MOTION": 14.76470003, "ECCENTRICITY": 0.00662316, "INCLINATION": 74.0289, "RA_OF_ASC_NODE": 179.791, "ARG_OF_PERICENTER": 293.6475, "MEAN_ANOMALY": 65.7756, "EPHEMERIS_TYPE": 0, "CLASSIFICATION_TYPE": "U", "NORAD_CAT_ID": 34854, "ELEMENT_SET_NO": 999, "REV_AT_EPOCH": 71722, "BSTAR": 0.00065989077, "MEAN_MOTION_DOT": 4.729e-05, "MEAN_MOTION_DDOT": 0}, "tle": {"line1": "1 34854U 93036ABY 25335.91858952  .00004729  00000+0  65989-3 0  9991", "line2": "2 34854  74.0289 179.7910 0066231 293.6475  65.7756 14.76470003717221"}}, "geometry": {"type": "Point", "coordinates": [167.77760232484272, -26.03329108270219]}}, {"type": "Feature", "properties": {"norad_id": 34856, "name": "COSMOS 2251 DEB", "group": "cosmos-2251-debris", "lat": -23.822990771598484, "lon": -69.79456797709742, "alt_km": 536.36943172061, "timestamp": "2025-12-03T22:42:33.028020+00:00", "meta": {"OBJECT_NAME": "COSMOS 2251 DEB", "OBJECT_ID": "1993-036ACA", "EPOCH": "2025-12-02T11:02:06.604224", "MEAN_MOTION": 15.05140167, "ECCENTRICITY": 0.00347835, "INCLINATION": 73.9965, "RA_OF_ASC_NODE": 105.9765, "ARG_OF_PERICENTER": 243.8774, "MEAN_ANOMALY": 190.0896, "EPHEMERIS_TYPE": 0, "CLASSIFICATION_TYPE": "U", "NORAD_CAT_ID": 34856, "ELEMENT_SET_NO": 999, "REV_AT_EPOCH": 88957, "BSTAR": 0.0024540063, "MEAN_MOTION_DOT": 0.00035572, "MEAN_MOTION_DDOT": 0}, "tle": {"line1": "1 34856U 93036ACA 25336.45979866  .00035572  00000+0  24540-2 0  9998", "line2": "2 34856  73.9965 105.9765 0034783 243.8774 190.0896 15.05140167889570"}}, "geometry": {"type": "Point", "coordinates": [-69.79456797709742, -23.822990771598484]}}, {"type": "Feature", "properties": {"norad_id": 34857, "name": "COSMOS 2251 DEB", "group": "cosmos-2251-debris", "lat": -69.73210271709415, "lon": -5.478582274917669, "alt_km": 657.7771929207383, "timestamp": "2025-12-03T22:42:33.028029+00:00", "meta": {"OBJECT_NAME": "COSMOS 2251 DEB", "OBJECT_ID": "1993-036ACB", "EPOCH": "2025-12-03T10:09:05.618016", "MEAN_MOTION": 14.58723302, "ECCENTRICITY": 0.0066206, "INCLINATION": 74.0144, "RA_OF_ASC_NODE": 124.597, "ARG_OF_PERICENTER": 250.6702, "MEAN_ANOMALY": 139.992, "EPHEMERIS_TYPE": 0, "CLASSIFICATION_TYPE": "U", "NORAD_CAT_ID": 34857, "ELEMENT_SET_NO": 999, "REV_AT_EPOCH": 87765, "BSTAR": 0.0016741, "MEAN_MOTION_DOT": 8.033e-05, "MEAN_MOTION_DDOT": 0}, "tle": {"line1": "1 34857U 93036ACB 25337.42298169  .00008033  00000+0  16741-2 0  9993", "line2": "2 34857  74.0144 124.5970 0066206 250.6702 139.9920 14.58723302877650"}}, "geometry": {"type": "Point", "coordinates": [-5.478582274917669, -69.73210271709415]}}, {"type": "Feature", "properties": {"norad_id": 34859, "name": "COSMOS 2251 DEB", "group": "cosmos-2251-debris", "lat": -72.83759715735472, "lon": -70.05201089617347, "alt_km": 533.5077793185219, "timestamp": "2025-12-03T22:42:33.028039+00:00", "meta": {"OBJECT_NAME": "COSMOS 2251 DEB", "OBJECT_ID": "1993-036ACD", "EPOCH": "2025-12-03T12:38:16.175904", "MEAN_MOTION": 15.12289472, "ECCENTRICITY": 0.0004547, "INCLINATION": 74.0347, "RA_OF_ASC_NODE": 358.789, "ARG_OF_PERICENTER": 317.5487, "MEAN_ANOMALY": 195.1552, "EPHEMERIS_TYPE": 0, "CLASSIFICATION_TYPE": "U", "NORAD_CAT_ID": 34859, "ELEMENT_SET_NO": 999, "REV_AT_EPOCH": 88219, "BSTAR": 0.0058122, "MEAN_MOTION_DOT": 0.0010206, "MEAN_MOTION_DDOT": 0}, "tle": {"line1": "1 34859U 93036ACD 25337.52657611  .00102060  00000+0  58122-2 0  9991", "line2": "2 34859  74.0347 358.7890 0004547 317.5487 195.1552 15.12289472882198"}}, "geometry": {"type": "Point", "coordinates": [-70.05201089617347, -72.83759715735472]}}]}